[{"OBJECT_NAME":"STARLINK-5695","OBJECT_ID":"2023-015AN","EPOCH":"2026-03-09T22:00:01.999584","MEAN_MOTION":15.12778701,"ECCENTRICITY":0.0001487,"INCLINATION":42.9994,"RA_OF_ASC_NODE":337.4442,"ARG_OF_PERICENTER":225.7062,"MEAN_ANOMALY":61.9629,"EPHEMERIS_TYPE":0,"CLASSIFICATION_TYPE":"U","NORAD_CAT_ID":55485,"ELEMENT_SET_NO":999,"REV_AT_EPOCH":577,"BSTAR":0.00099175492,"MEAN_MOTION_DOT":0.00017529,"MEAN_MOTION_DDOT":0},{"OBJECT_NAME":"CZ-6A DEB","OBJECT_ID":"2024-140NU","EPOCH":"2026-03-09T12:31:51.442752","MEAN_MOTION":14.86441835,"ECCENTRICITY":0.01338094,"INCLINATION":88.7229,"RA_OF_ASC_NODE":259.52,"ARG_OF_PERICENTER":124.7168,"MEAN_ANOMALY":236.6749,"EPHEMERIS_TYPE":0,"CLASSIFICATION_TYPE":"U","NORAD_CAT_ID":61102,"ELEMENT_SET_NO":999,"REV_AT_EPOCH":8243,"BSTAR":0.0019148109,"MEAN_MOTION_DOT":0.00019972,"MEAN_MOTION_DDOT":0}]
